{"type": "FeatureCollection", "features": [ {"type": "Feature", "properties": {"norad_id": 30306, "name": "FENGYUN 1C DEB", "group": "fengyun-1c-debris", "lat": -51.890931645187806, "lon": 33.87652390042671, "alt_km": 769.9501120944797, "timestamp": "2025-12-07T14:37:05.480080+00:00", "meta": {"OBJECT_NAME": "FENGYUN 1C DEB", "OBJECT_ID": "1999-025ZT", "EPOCH": "2025-12-06T01:52:09.093792", "MEAN_MOTION": 14.28153257, "ECCENTRICITY": 0.01136807, "INCLINATION": 98.5868, "RA_OF_ASC_NODE": 21.2637, "ARG_OF_PERICENTER": 17.149, "MEAN_ANOMALY": 343.3483, "EPHEMERIS_TYPE": 0, "CLASSIFICATION_TYPE": "U", "NORAD_CAT_ID": 30306, "ELEMENT_SET_NO": 999, "REV_AT_EPOCH": 97586, "BSTAR": 0.0017345146, "MEAN_MOTION_DOT": 4.583e-05, "MEAN_MOTION_DDOT": 0}, "tle": {"line1": "1 30306U 99025ZT  25340.07788303  .00004583  00000+0  17345-2 0  9998", "line2": "2 30306  98.5868  21.2637 0113680  17.1490 343.3483 14.28153257975861"}}, "geometry": {"type": "Point", "coordinates": [33.87652390042671, -51.890931645187806]}}, {"type": "Feature", "properties": {"norad_id": 30309, "name": "FENGYUN 1C DEB", "group": "fengyun-1c-debris", "lat": 48.52342191921212, "lon": -130.61734920880704, "alt_km": 893.9672860711016, "timestamp": "2025-12-07T14:37:05.480090+00:00", "meta": {"OBJECT_NAME": "FENGYUN 1C DEB", "OBJECT_ID": "1999-025ZW", "EPOCH": "2025-12-06T15:35:05.640576", "MEAN_MOTION": 13.93511805, "ECCENTRICITY": 0.0093166, "INCLINATION": 99.2269, "RA_OF_ASC_NODE": 37.8297, "ARG_OF_PERICENTER": 208.3621, "MEAN_ANOMALY": 151.245, "EPHEMERIS_TYPE": 0, "CLASSIFICATION_TYPE": "U", "NORAD_CAT_ID": 30309, "ELEMENT_SET_NO": 999, "REV_AT_EPOCH": 95948, "BSTAR": 0.00057492976, "MEAN_MOTION_DOT": 7.36e-06, "MEAN_MOTION_DDOT": 0}, "tle": {"line1": "1 30309U 99025ZW  25340.64937084  .00000736  00000+0  57493-3 0  9991", "line2": "2 30309  99.2269  37.8297 0093166 208.3621 151.2450 13.93511805959486"}}, "geometry": {"type": "Point", "coordinates": [-130.61734920880704, 48.52342191921212]}}, {"type": "Feature", "properties": {"norad_id": 30310, "name": "FENGYUN 1C DEB", "group": "fengyun-1c-debris", "lat": 39.530168218136545, "lon": -171.32762202956073, "alt_km": 966.2825101017634, "timestamp": "2025-12-07T14:37:05.480100+00:00", "meta": {"OBJECT_NAME": "FENGYUN 1C DEB", "OBJECT_ID": "1999-025ZX", "EPOCH": "2025-12-06T19:12:51.860736", "MEAN_MOTION": 14.08359994, "ECCENTRICITY": 0.02412402, "INCLINATION": 98.6647, "RA_OF_ASC_NODE": 0.666, "ARG_OF_PERICENTER": 14.3447, "MEAN_ANOMALY": 346.4417, "EPHEMERIS_TYPE": 0, "CLASSIFICATION_TYPE": "U", "NORAD_CAT_ID": 30310, "ELEMENT_SET_NO": 999, "REV_AT_EPOCH": 96648, "BSTAR": 0.0011758878, "MEAN_MOTION_DOT": 2.587e-05, "MEAN_MOTION_DDOT": 0}, "tle": {"line1": "1 30310U 99025ZX  25340.80060024  .00002587  00000+0  11759-2 0  9992", "line2": "2 30310  98.6647   0.6660 0241240  14.3447 346.4417 14.08359994966487"}}, "geometry": {"type": "Point", "coordinates": [-171.32762202956073, 39.530168218136545]}}, {"type": "Feature", "properties": {"norad_id": 30311, "name": "FENGYUN 1C DEB", "group": "fengyun-1c-debris", "lat": 1.260800631465778, "lon": -102.30999000961808, "alt_km": 870.5898753579468, "timestamp": "2025-12-07T14:37:05.480111+00:00", "meta": {"OBJECT_NAME": "FENGYUN 1C DEB", "OBJECT_ID": "1999-025ZY", "EPOCH": "2025-12-06T16:49:53.225472", "MEAN_MOTION": 13.77879816, "ECCENTRICITY": 0.01650815, "INCLINATION": 99.1399, "RA_OF_ASC_NODE": 76.613, "ARG_OF_PERICENTER": 212.981, "MEAN_ANOMALY": 146.0959, "EPHEMERIS_TYPE": 0, "CLASSIFICATION_TYPE": "U", "NORAD_CAT_ID": 30311, "ELEMENT_SET_NO": 999, "REV_AT_EPOCH": 94877, "BSTAR": 0.00078174524, "MEAN_MOTION_DOT": 8.24e-06, "MEAN_MOTION_DDOT": 0}, "tle": {"line1": "1 30311U 99025ZY  25340.70131048  .00000824  00000+0  78175-3 0  9995", "line2": "2 30311  99.1399  76.6130 0165081 212.9810 146.0959 13.77879816948773"}}, "geometry": {"type": "Point", "coordinates": [-102.30999000961808, 1.260800631465778]}}, {"type": "Feature", "properties": {"norad_id": 30312, "name": "FENGYUN 1C DEB", "group": "fengyun-1c-debris", "lat": 74.47409515969895, "lon": -85.16006566918365, "alt_km": 736.6924460445771, "timestamp": "2025-12-07T14:37:05.480121+00:00", "meta": {"OBJECT_NAME": "FENGYUN 1C DEB", "OBJECT_ID": "1999-025ZZ", "EPOCH": "2025-12-06T21:48:41.024160", "MEAN_MOTION": 14.45672882, "ECCENTRICITY": 0.00116882, "INCLINATION": 98.8665, "RA_OF_ASC_NODE": 59.9222, "ARG_OF_PERICENTER": 224.2083, "MEAN_ANOMALY": 196.1772, "EPHEMERIS_TYPE": 0, "CLASSIFICATION_TYPE": "U", "NORAD_CAT_ID": 30312, "ELEMENT_SET_NO": 999, "REV_AT_EPOCH": 97836, "BSTAR": 0.0039865962, "MEAN_MOTION_DOT": 0.00014097, "MEAN_MOTION_DDOT": 0}, "tle": {"line1": "1 30312U 99025ZZ  25340.90880815  .00014097  00000+0  39866-2 0  9991", "line2": "2 30312  98.8665  59.9222 0011688 224.2083 196.1772 14.45672882978360"}}, "geometry": {"type": "Point", "coordinates": [-85.16006566918365, 74.47409515969895]}}, {"type": "Feature", "properties": {"norad_id": 30313, "name": "FENGYUN 1C DEB", "group": "fengyun-1c-debris", "lat": -22.05800799437585, "lon": -115.91239221570446, "alt_km": 847.118494631708, "timestamp": "2025-12-07T14:37:05.480131+00:00", "meta": {"OBJECT_NAME": "FENGYUN 1C DEB", "OBJECT_ID": "1999-025AAA", "EPOCH": "2025-12-06T21:07:41.059776", "MEAN_MOTION": 14.25385773, "ECCENTRICITY": 0.00562694, "INCLINATION": 98.8758, "RA_OF_ASC_NODE": 66.9807, "ARG_OF_PERICENTER": 353.4924, "MEAN_ANOMALY": 71.6373, "EPHEMERIS_TYPE": 0, "CLASSIFICATION_TYPE": "U", "NORAD_CAT_ID": 30313, "ELEMENT_SET_NO": 999, "REV_AT_EPOCH": 97006, "BSTAR": 0.002629483, "MEAN_MOTION_DOT": 6.263e-05, "MEAN_MOTION_DDOT": 0}, "tle": {"line1": "1 30313U 99025AAA 25340.88033634  .00006263  00000+0  26295-2 0  9996", "line2": "2 30313  98.8758  66.9807 0056269 353.4924  71.6373 14.25385773970065"}}, "geometry": {"type": "Point", "coordinates": [-115.91239221570446, -22.05800799437585]}}, {"type": "Feature", "properties": {"norad_id": 30314, "name": "FENGYUN 1C DEB", "group": "fengyun-1c-debris", "lat": -47.85965865339708, "lon": -177.7317134277342, "alt_km": 844.9551160724513, "timestamp": "2025-12-07T14:37:05.480141+00:00", "meta": {"OBJECT_NAME": "FENGYUN 1C DEB", "OBJECT_ID": "1999-025AAB", "EPOCH": "2025-12-05T11:25:49.544832", "MEAN_MOTION": 14.01155189, "ECCENTRICITY": 0.01425643, "INCLINATION": 98.3813, "RA_OF_ASC_NODE": 170.9323, "ARG_OF_PERICENTER": 18.3994, "MEAN_ANOMALY": 342.2256, "EPHEMERIS_TYPE": 0, "CLASSIFICATION_TYPE": "U", "NORAD_CAT_ID": 30314, "ELEMENT_SET_NO": 999, "REV_AT_EPOCH": 96007, "BSTAR": 0.001626767, "MEAN_MOTION_DOT": 2.631e-05, "MEAN_MOTION_DDOT": 0}, "tle": {"line1": "1 30314U 99025AAB 25339.47626788  .00002631  00000+0  16268-2 0  9992", "line2": "2 30314  98.3813 170.9323 0142564  18.3994 342.2256 14.01155189960077"}}, "geometry": {"type": "Point", "coordinates": [-177.7317134277342, -47.85965865339708]}}, {"type": "Feature", "properties": {"norad_id": 30315, "name": "FENGYUN 1C DEB", "group": "fengyun-1c-debris", "lat": 31.30611757257823, "lon": 176.55248854165964, "alt_km": 844.2284381551171, "timestamp": "2025-12-07T14:37:05.480152+00:00", "meta": {"OBJECT_NAME": "FENGYUN 1C DEB", "OBJECT_ID": "1999-025AAC", "EPOCH": "2025-12-06T22:58:30.262944", "MEAN_MOTION": 14.19051849, "ECCENTRICITY": 0.00355516, "INCLINATION": 98.6017, "RA_OF_ASC_NODE": 350.6383, "ARG_OF_PERICENTER": 16.9638, "MEAN_ANOMALY": 43.0598, "EPHEMERIS_TYPE": 0, "CLASSIFICATION_TYPE": "U", "NORAD_CAT_ID": 30315, "ELEMENT_SET_NO": 999, "REV_AT_EPOCH": 97625, "BSTAR": 0.00052671484, "MEAN_MOTION_DOT": 1.065e-05, "MEAN_MOTION_DDOT": 0}, "tle": {"line1": "1 30315U 99025AAC 25340.95729471  .00001065  00000+0  52671-3 0  9990", "line2": "2 30315  98.6017 350.6383 0035551  16.9638  43.0598 14.19051849976255"}}, "geometry": {"type": "Point", "coordinates": [176.55248854165964, 31.30611757257823]}}, {"type": "Feature", "properties": {"norad_id": 30316, "name": "FENGYUN 1C DEB", "group": "fengyun-1c-debris", "lat": -58.64648333853524, "lon": -110.62930681613862, "alt_km": 739.026321618885, "timestamp": "2025-12-07T14:37:05.480162+00:00", "meta": {"OBJECT_NAME": "FENGYUN 1C DEB", "OBJECT_ID": "1999-025AAD", "EPOCH": "2025-12-06T06:10:59.360736", "MEAN_MOTION": 14.55884206, "ECCENTRICITY": 0.00361866, "INCLINATION": 98.6492, "RA_OF_ASC_NODE": 82.4378, "ARG_OF_PERICENTER": 60.4501, "MEAN_ANOMALY": 300.0294, "EPHEMERIS_TYPE": 0, "CLASSIFICATION_TYPE": "U", "NORAD_CAT_ID": 30316, "ELEMENT_SET_NO": 999, "REV_AT_EPOCH": 98242, "BSTAR": 0.0038537602, "MEAN_MOTION_DOT": 0.00017054, "MEAN_MOTION_DDOT": 0}, "tle": {"line1": "1 30316U 99025AAD 25340.25763149  .00017054  00000+0  38538-2 0  9994", "line2": "2 30316  98.6492  82.4378 0036186  60.4501 300.0294 14.55884206982421"}}, "geometry": {"type": "Point", "coordinates": [-110.62930681613862, -58.64648333853524]}}, {"type": "Feature", "properties": {"norad_id": 30317, "name": "FENGYUN 1C DEB", "group": "fengyun-1c-debris", "lat": 3.333714491931873, "lon": -18.28864931492754, "alt_km": 866.7199426826937, "timestamp": "2025-12-07T14:37:05.480172+00:00", "meta": {"OBJECT_NAME": "FENGYUN 1C DEB", "OBJECT_ID": "1999-025AAE", "EPOCH": "2025-12-06T23:14:28.597920", "MEAN_MOTION": 14.06942695, "ECCENTRICITY": 0.00241902, "INCLINATION": 98.7863, "RA_OF_ASC_NODE": 341.6051, "ARG_OF_PERICENTER": 293.7137, "MEAN_ANOMALY": 66.1495, "EPHEMERIS_TYPE": 0, "CLASSIFICATION_TYPE": "U", "NORAD_CAT_ID": 30317, "ELEMENT_SET_NO": 999, "REV_AT_EPOCH": 96932, "BSTAR": 0.00018717959, "MEAN_MOTION_DOT": 2.7e-06, "MEAN_MOTION_DDOT": 0}, "tle": {"line1": "1 30317U 99025AAE 25340.96838655  .00000270  00000+0  18718-3 0  9999", "line2": "2 30317  98.7863 341.6051 0024190 293.7137  66.1495 14.06942695969321"}}, "geometry": {"type": "Point", "coordinates": [-18.28864931492754, 3.333714491931873]}}]}